NORAD_CAT_ID,OBJECT_NAME,OBJECT_TYPE,EPOCH,MEAN_MOTION,ECCENTRICITY,INCLINATION,RA_OF_ASC_NODE,ARG_OF_PERICENTER,MEAN_ANOMALY,BSTAR,MEAN_MOTION_DOT,MEAN_MOTION_DDOT,TLE_LINE0,TLE_LINE1,TLE_LINE2,SEMIMAJOR_AXIS,PERIOD,APOGEE,PERIGEE,DECAYED
52680.0,STARLINK-3774,PAYLOAD,2022-12-01 17:14:40,15.08837252,0.0002387,53.2165,104.0558,52.1077,308.013,5.0663e-05,5.18e-06,0.0,0 STARLINK-3774,1 52680U 22053AA  22335.71852174  .00000518  00000-0  50663-4 0  9991,2 52680  53.2165 104.0558 0002387  52.1077 308.0130 15.08837252 30492,6917.889,95.438,541.405,538.102,0.0
52680.0,STARLINK-3774,PAYLOAD,2022-12-02 10:43:54,15.08841649,0.0002379,53.2167,100.7854,44.9436,315.1748,0.00011249,1.502e-05,0.0,0 STARLINK-3774,1 52680U 22053AA  22336.44716002  .00001502  00000-0  11249-3 0  9991,2 52680  53.2167 100.7854 0002379  44.9436 315.1748 15.08841649 31013,6917.875,95.437,541.386,538.095,0.0
52680.0,STARLINK-3774,PAYLOAD,2022-12-02 18:40:50,15.08843591,0.0002418,53.2169,99.2988,44.9169,315.2018,0.00011768,1.585e-05,0.0,0 STARLINK-3774,1 52680U 22053AA  22336.77835861  .00001585  00000-0  11768-3 0  9999,2 52680  53.2169  99.2988 0002418  44.9169 315.2018 15.08843591 30650,6917.869000000002,95.437,541.4069999999998,538.062,0.0
52680.0,STARLINK-3774,PAYLOAD,2022-12-03 01:02:23,15.08836374,0.0002393,53.2163,98.1089,47.5597,312.5597,5.430600000000001e-05,5.76e-06,0.0,0 STARLINK-3774,1 52680U 22053AA  22337.04332530  .00000576  00000-0  54306-4 0  9990,2 52680  53.2163  98.1089 0002393  47.5597 312.5597 15.08836374 30697,6917.891,95.438,541.4119999999998,538.101,0.0
52680.0,STARLINK-3774,PAYLOAD,2022-12-03 12:10:05,15.08829367,0.0002312,53.2162,96.0269,50.7087,309.411,5.5328e-05,5.92e-06,0.0,0 STARLINK-3774,1 52680U 22053AA  22337.50701104  .00000592  00000-0  55328-4 0  9991,2 52680  53.2162  96.0269 0002312  50.7087 309.4110 15.08829367 31178,6917.913000000001,95.438,541.377,538.178,0.0
52680.0,STARLINK-3774,PAYLOAD,2022-12-03 16:56:15,15.0882861,0.0002253,53.2166,95.1352,46.5074,313.6105,3.6792e-05,2.97e-06,0.0,0 STARLINK-3774,1 52680U 22053AA  22337.70573294  .00000297  00000-0  36792-4 0  9996,2 52680  53.2166  95.1352 0002253  46.5074 313.6105 15.08828610 30796,6917.915,95.438,541.339,538.222,0.0
52680.0,STARLINK-3774,PAYLOAD,2022-12-04 08:50:07,15.08820586,0.0002261,53.2176,92.1619,45.5092,314.6084,-0.00010428,-1.947e-05,0.0,0 STARLINK-3774,1 52680U 22053AA  22338.36814687 -.00001947  00000-0 -10428-3 0  9995,2 52680  53.2176  92.1619 0002261  45.5092 314.6084 15.08820586 30890,6917.94,95.439,541.369,538.241,0.0
52680.0,STARLINK-3774,PAYLOAD,2022-12-04 16:47:03,15.08827111,0.0002299,53.2167,90.6745,43.1687,316.9485,-0.00012365,-2.255e-05,0.0,0 STARLINK-3774,1 52680U 22053AA  22338.69934653 -.00002255  00000-0 -12365-3 0  9992,2 52680  53.2167  90.6745 0002299  43.1687 316.9485 15.08827111 31351,6917.92,95.438,541.375,538.194,0.0
52680.0,STARLINK-3774,PAYLOAD,2022-12-05 00:43:58,15.08830229,0.0002249,53.2173,89.1881,44.4963,315.621,1.0252e-05,-1.25e-06,0.0,0 STARLINK-3774,1 52680U 22053AA  22339.03054269 -.00000125  00000-0  10252-4 0  9994,2 52680  53.2173  89.1881 0002249  44.4963 315.6210 15.08830229 30993,6917.91,95.438,541.331,538.219,0.0
52680.0,STARLINK-3774,PAYLOAD,2022-12-05 07:05:31,15.08832061,0.0002221,53.2172,87.9982,42.7943,317.3221,8.842600000000001e-05,1.119e-05,0.0,0 STARLINK-3774,1 52680U 22053AA  22339.29550064  .00001119  00000-0  88426-4 0  9997,2 52680  53.2172  87.9982 0002221  42.7943 317.3221 15.08832061 31447,6917.905,95.438,541.306,538.2330000000002,0.0
52680.0,STARLINK-3774,PAYLOAD,2022-12-05 15:02:26,15.08840994,0.0002261,53.2171,86.5121,42.5283,317.5884,0.00016096,2.274e-05,0.0,0 STARLINK-3774,1 52680U 22053AA  22339.62669431  .00002274  00000-0  16096-3 0  9999,2 52680  53.2171  86.5121 0002261  42.5283 317.5884 15.08840994 31086,6917.877,95.437,541.306,538.178,0.0
52680.0,STARLINK-3774,PAYLOAD,2022-12-05 19:48:35,15.08847633,0.0002285,53.2173,85.6198,44.7947,315.3229,0.00022575,3.307e-05,0.0,0 STARLINK-3774,1 52680U 22053AA  22339.82540866  .00003307  00000-0  22575-3 0  9998,2 52680  53.2173  85.6198 0002285  44.7947 315.3229 15.08847633 31524,6917.857,95.437,541.303,538.141,0.0
52680.0,STARLINK-3774,PAYLOAD,2022-12-06 00:34:44,15.08852244,0.0002274,53.2173,84.7277,43.1604,316.9566,0.00024356,3.591e-05,0.0,0 STARLINK-3774,1 52680U 22053AA  22340.02412531  .00003591  00000-0  24356-3 0  9993,2 52680  53.2173  84.7277 0002274  43.1604 316.9566 15.08852244 31146,6917.843000000003,95.437,541.281,538.135,0.0
52680.0,STARLINK-3774,PAYLOAD,2022-12-06 06:56:17,15.08846778,0.000227,53.2173,83.5384,43.3129,316.8041,0.00034848,5.263e-05,0.0,0 STARLINK-3774,1 52680U 22053AA  22340.28908801  .00005263  00000-0  34848-3 0  9996,2 52680  53.2173  83.5384 0002270  43.3129 316.8041 15.08846778 31188,6917.86,95.437,541.295,538.154,0.0
52680.0,STARLINK-3774,PAYLOAD,2022-12-06 13:17:50,15.08850089,0.0002536,53.2167,82.3478,50.6434,309.4783,0.00037922,5.754e-05,0.0,0 STARLINK-3774,1 52680U 22053AA  22340.55405432  .00005754  00000-0  37922-3 0  9999,2 52680  53.2167  82.3478 0002536  50.6434 309.4783 15.08850089 31638,6917.85,95.437,541.469,537.96,0.0
52680.0,STARLINK-3774,PAYLOAD,2022-12-06 14:53:13,15.08845353,0.0002204,53.2165,82.0519,33.7923,326.321,0.00010892,1.446e-05,0.0,0 STARLINK-3774,1 52680U 22053AA  22340.62029531  .00001446  00000-0  10892-3 0  9990,2 52680  53.2165  82.0519 0002204  33.7923 326.3210 15.08845353 31233,6917.864000000001,95.437,541.254,538.2040000000002,0.0
52680.0,STARLINK-3774,PAYLOAD,2022-12-07 16:19:24,15.08834499,0.0002456,53.2159,77.2951,35.1542,324.9612,-0.00014636,-2.617e-05,0.0,0 STARLINK-3774,1 52680U 22053AA  22341.68013922 -.00002617  00000-0 -14636-3 0  9997,2 52680  53.2159  77.2951 0002456  35.1542 324.9612 15.08834499 31390,6917.897,95.438,541.461,538.063,0.0
52680.0,STARLINK-3774,PAYLOAD,2022-12-08 12:59:23,15.08849,0.0002548,53.2178,73.4298,42.8636,317.2555,-2.9185e-05,-7.53e-06,0.0,0 STARLINK-3774,1 52680U 22053AA  22342.54124688 -.00000753  00000-0 -29185-4 0  9990,2 52680  53.2178  73.4298 0002548  42.8636 317.2555 15.08849000 31939,6917.853,95.437,541.481,537.955,0.0
52680.0,STARLINK-3774,PAYLOAD,2022-12-08 16:10:11,15.08831681,0.0002356,53.2155,72.8351,30.9347,329.1783,2.7522e-05,1.5e-06,0.0,0 STARLINK-3774,1 52680U 22053AA  22342.67373985  .00000150  00000-0  27522-4 0  9992,2 52680  53.2155  72.8351 0002356  30.9347 329.1783 15.08831681 31954,6917.906,95.438,541.401,538.141,0.0
52680.0,STARLINK-3774,PAYLOAD,2022-12-10 11:05:35,15.08844773,0.0002322,53.2171,64.8039,20.1574,339.9509,-2.3843e-05,-6.68e-06,0.0,0 STARLINK-3774,1 52680U 22053AA  22344.46221672 -.00000668  00000-0 -23843-4 0  9994,2 52680  53.2171  64.8039 0002322  20.1574 339.9509 15.08844773 31818,6917.866,95.437,541.337,538.124,0.0
52680.0,STARLINK-3774,PAYLOAD,2022-12-10 17:27:07,15.08849302,0.0002191,53.2183,63.614,29.8667,330.245,2.9953000000000013e-05,1.89e-06,0.0,0 STARLINK-3774,1 52680U 22053AA  22344.72717208  .00000189  00000-0  29953-4 0  9992,2 52680  53.2183  63.6140 0002191  29.8667 330.2450 15.08849302 32266,6917.852,95.437,541.2330000000002,538.201,0.0
52680.0,STARLINK-3774,PAYLOAD,2022-12-11 12:31:45,15.08836987,0.0002391,53.2163,60.0461,30.3949,329.7181,-2.715e-05,-7.200000000000001e-06,0.0,0 STARLINK-3774,1 52680U 22053AA  22345.52205956 -.00000720  00000-0 -27150-4 0  9993,2 52680  53.2163  60.0461 0002391  30.3949 329.7181 15.08836987 32385,6917.89,95.438,541.409,538.101,0.0
52680.0,STARLINK-3774,PAYLOAD,2022-12-11 17:17:55,15.08840796,0.0002405,53.2164,59.1544,30.3604,329.7527,3.4691e-05,2.64e-06,0.0,0 STARLINK-3774,1 52680U 22053AA  22345.72077785  .00000264  00000-0  34691-4 0  9991,2 52680  53.2164  59.1544 0002405  30.3604 329.7527 15.08840796 32007,6917.878000000002,95.438,541.4069999999998,538.0790000000002,0.0
52680.0,STARLINK-3774,PAYLOAD,2022-12-11 20:28:41,15.08844446,0.0002399,53.2165,58.5599,32.9268,327.1873,0.000118,1.59e-05,0.0,0 STARLINK-3774,1 52680U 22053AA  22345.85325594  .00001590  00000-0  11800-3 0  9998,2 52680  53.2165  58.5599 0002399  32.9268 327.1873 15.08844446 32436,6917.8669999999975,95.437,541.391,538.072,0.0
52680.0,STARLINK-3774,PAYLOAD,2022-12-12 12:22:32,15.08845878,0.0002411,53.2161,55.5864,32.7676,327.3466,0.00012983,1.779e-05,0.0,0 STARLINK-3774,1 52680U 22053AA  22346.51565436  .00001779  00000-0  12983-3 0  9995,2 52680  53.2161  55.5864 0002411  32.7676 327.3466 15.08845878 32531,6917.861999999999,95.437,541.395,538.06,0.0
52680.0,STARLINK-3774,PAYLOAD,2022-12-12 17:08:41,15.08849997,0.0002442,53.2159,54.6943,31.485,328.6288,0.00023148,3.399e-05,0.0,0 STARLINK-3774,1 52680U 22053AA  22346.71437216  .00003399  00000-0  23148-3 0  9996,2 52680  53.2159  54.6943 0002442  31.4850 328.6288 15.08849997 32150,6917.85,95.437,541.404,538.025,0.0
52680.0,STARLINK-3774,PAYLOAD,2022-12-12 20:19:27,15.08850099,0.0002407,53.216,54.0995,32.4309,327.6831,0.00018712,2.692e-05,0.0,0 STARLINK-3774,1 52680U 22053AA  22346.84685142  .00002692  00000-0  18712-3 0  9999,2 52680  53.2160  54.0995 0002407  32.4309 327.6831 15.08850099 32589,6917.85,95.437,541.38,538.049,0.0
52680.0,STARLINK-3774,PAYLOAD,2022-12-13 13:48:42,15.08843087,0.0002572,53.2159,50.82899999999999,28.5783,331.535,7.840399999999999e-05,9.6e-06,0.0,0 STARLINK-3774,1 52680U 22053AA  22347.57549233  .00000960  00000-0  78404-4 0  9991,2 52680  53.2159  50.8290 0002572  28.5783 331.5350 15.08843087 32695,6917.871,95.437,541.515,537.957,0.0
52680.0,STARLINK-3774,PAYLOAD,2022-12-13 16:59:28,15.088437,0.0002522,53.216,50.2339,29.3073,330.806,6.8083e-05,7.95e-06,0.0,0 STARLINK-3774,1 52680U 22053AA  22347.70797204  .00000795  00000-0  68083-4 0  9997,2 52680  53.2160  50.2339 0002522  29.3073 330.8060 15.08843700 32301,6917.869000000002,95.437,541.479,537.989,0.0
